[{"OBJECT_NAME":"SATELIOT_3","OBJECT_ID":"2024-149CN","EPOCH":"2026-03-09T19:09:09.165600","MEAN_MOTION":14.97601684,"ECCENTRICITY":0.00058308,"INCLINATION":97.6866,"RA_OF_ASC_NODE":147.0596,"ARG_OF_PERICENTER":63.3535,"MEAN_ANOMALY":296.8284,"EPHEMERIS_TYPE":0,"CLASSIFICATION_TYPE":"U","NORAD_CAT_ID":60552,"ELEMENT_SET_NO":999,"REV_AT_EPOCH":8520,"BSTAR":0.00025002978,"MEAN_MOTION_DOT":2.865e-5,"MEAN_MOTION_DDOT":0},{"OBJECT_NAME":"STARLINK-36213","OBJECT_ID":"2025-304W","EPOCH":"2026-03-09T17:36:08.078112","MEAN_MOTION":14.98333555,"ECCENTRICITY":0.00026387,"INCLINATION":70.0025,"RA_OF_ASC_NODE":174.2497,"ARG_OF_PERICENTER":272.6683,"MEAN_ANOMALY":87.4174,"EPHEMERIS_TYPE":0,"CLASSIFICATION_TYPE":"U","NORAD_CAT_ID":67212,"ELEMENT_SET_NO":999,"REV_AT_EPOCH":1389,"BSTAR":0.00042942824,"MEAN_MOTION_DOT":5.035e-5,"MEAN_MOTION_DDOT":0}]
