SATELIOT_3              
1 60552U 24149CN  26068.79802274  .00002865  00000+0  25003-3 0  9992
2 60552  97.6866 147.0596 0005831  63.3535 296.8284 14.97601684 85206
STARLINK-36213          
1 67212U 25304W   26068.73342683  .00005035  00000+0  42943-3 0  9997
2 67212  70.0025 174.2497 0002639 272.6683  87.4174 14.98333554 13899
